OBJECT_NAME,OBJECT_ID,EPOCH,MEAN_MOTION,ECCENTRICITY,INCLINATION,RA_OF_ASC_NODE,ARG_OF_PERICENTER,MEAN_ANOMALY,EPHEMERIS_TYPE,CLASSIFICATION_TYPE,NORAD_CAT_ID,ELEMENT_SET_NO,REV_AT_EPOCH,BSTAR,MEAN_MOTION_DOT,MEAN_MOTION_DDOT
CHINASAT 9B,2021-080A,2026-07-17T18:53:17.269152,1.00279615,.00027088,0.0520,245.4964,245.8201,188.9949,0,U,49125,999,1795,0,-.323E-5,0
SHIJIAN-21 (SJ-21),2021-094A,2026-07-18T07:46:03.226944,1.00276700,.00515434,5.1850,60.9904,168.9422,310.6676,0,U,49330,999,567,0,-.357E-5,0
SES-17,2021-095A,2026-07-18T06:03:48.757824,1.00269923,.00009032,0.0233,50.4660,63.5755,205.8645,0,U,49332,999,1816,0,-.28E-5,0
SYRACUSE 4A,2021-095B,2026-07-17T23:45:19.118304,1.00270419,.00016587,0.0194,65.4199,48.4658,223.7650,0,U,49333,999,1825,0,0,0
QZS-1R (MICHIBIKI-1R),2021-096A,2026-07-17T13:39:38.744352,1.00244494,.0755353,37.5223,79.1315,272.2799,280.3110,0,U,49336,999,1731,0,-.311E-5,0
ZHONGXING-1D,2021-114A,2026-07-18T06:59:58.375104,1.00267045,.00006375,0.0288,249.5754,3.2138,278.4252,0,U,49505,999,1713,0,-.345E-5,0
STPSAT-6,2021-118A,2026-07-18T04:08:25.707264,1.00270468,.00009003,0.3990,85.0979,247.1375,274.0473,0,U,49817,999,1688,0,-.53E-6,0
EXPRESS AMU-7,2021-123A,2026-07-18T07:04:05.479968,1.00272693,.00004829,0.0390,246.7036,62.6384,237.7773,0,U,50001,999,1685,0,-.25E-5,0
EXPRESS AMU-3,2021-123B,2026-07-16T21:29:32.083872,1.00271212,.00003461,0.0145,344.9181,324.0235,51.0553,0,U,50002,999,733,0,0,0
TIANLIAN 2-02,2021-124A,2026-07-18T05:28:57.357696,1.00271222,.00016324,0.8802,85.6278,161.1882,302.4079,0,U,50005,999,1693,0,-.23E-6,0
TURKSAT 5B,2021-126A,2026-07-17T23:44:11.724576,1.00273048,.00023398,0.0702,339.9085,17.5014,336.4253,0,U,50212,999,1660,0,.137E-5,0
INMARSAT 6-F1,2021-128A,2026-07-17T23:42:43.024608,1.00269331,.00001535,0.0170,52.3223,46.2494,276.6649,0,U,50319,999,1656,0,0,0
SHIYAN-12 01 (SY-12 01),2021-129A,2026-07-17T18:33:09.532800,1.00052688,.0002605,3.7517,79.4981,288.1588,241.4506,0,U,50321,999,1680,0,.137E-5,0
SHIYAN-12 02 (SY-12 02),2021-129B,2026-07-17T18:36:34.596288,1.00476084,.0003144,3.7507,79.4976,68.7419,178.7607,0,U,50322,999,1680,0,-.372E-5,0
TJS-9,2021-135A,2026-07-18T07:02:05.670816,1.00271262,.00021301,0.0538,100.3641,331.2598,107.2448,0,U,50574,999,1674,0,-.307E-5,0
GOES 18,2022-021A,2026-07-17T22:53:06.508320,1.00272139,.0000429,0.0156,130.5732,38.1260,333.3332,0,U,51850,999,690,0,.88E-6,0
ZHONGXING-6D,2022-038A,2026-07-16T20:00:58.366368,1.00271153,.0000739,0.0170,218.2431,323.3346,178.4012,0,U,52255,999,1572,0,-.364E-5,0
NILESAT 301,2022-061A,2026-07-18T06:20:54.619584,1.00270064,.00035798,0.0460,8.3180,73.8480,302.1283,0,U,52817,999,1504,0,-.66E-6,0
CMS-02 (GSAT-24),2022-067A,2026-07-17T23:42:30.176064,1.00272862,.00010073,0.0589,251.9126,112.2148,10.2727,0,U,52903,999,1491,0,-.173E-5,0
MEASAT 3D,2022-067B,2026-07-18T02:36:38.656800,1.00270725,.00005345,0.0381,321.9245,66.7802,37.8731,0,U,52904,999,1495,0,-.25E-5,0
SES-22,2022-071A,2026-07-18T05:26:38.615712,1.00273070,.00009288,0.0183,43.4758,65.7082,129.4903,0,U,52933,999,783,0,.96E-6,0
WFOV (USA 332),2022-073A,2026-07-18T00:06:17.108352,1.00276256,.00010016,3.7881,78.1367,188.7611,149.7434,0,U,52940,999,1467,0,-.372E-5,0
TIANLIAN 2-03,2022-078A,2026-07-18T06:25:54.140736,1.00270016,.00008057,0.7478,77.5361,17.1620,308.4815,0,U,53100,999,1485,0,.64E-6,0
SBIRS GEO-6 (USA 336),2022-092A,2026-07-18T07:02:35.623104,1.00270968,.00017907,3.2060,318.0104,153.0648,69.6664,0,U,53355,999,1454,0,-.298E-5,0
EUTELSAT KONNECT VHTS,2022-110A,2026-07-18T02:18:38.678400,1.00272523,.00028366,0.0581,99.2340,358.3461,235.6751,0,U,53765,999,714,0,.9E-7,0
ZHONGXING-1E,2022-112A,2026-07-17T23:55:33.137184,1.00270488,.00006931,0.0173,230.6190,39.8220,105.6752,0,U,53813,999,1415,0,0,0
SES-20,2022-123A,2026-07-18T05:37:31.594080,1.00269224,.00019445,0.0153,69.6244,23.5219,184.1662,0,U,53960,999,1384,0,-.109E-5,0
SES-21,2022-123B,2026-07-18T00:38:38.643360,1.00268201,.00009805,0.0393,41.1389,73.9584,59.4811,0,U,53961,999,752,0,0,0
GALAXY 33 (G-33),2022-128A,2026-07-18T05:41:12.511104,1.00270038,.00018696,0.0173,63.8723,50.0335,134.4194,0,U,54026,999,1405,0,.71E-6,0
GALAXY 34 (G-34),2022-128B,2026-07-18T05:40:30.902592,1.00267752,.00015749,0.0109,72.7228,50.4297,129.0028,0,U,54027,999,1422,0,.51E-6,0
ANGOSAT 2,2022-131A,2026-07-17T20:13:34.828608,1.00272706,.00001042,0.0184,121.8347,287.8592,212.3430,0,U,54033,999,1378,0,.126E-5,0
