CHINASAT 9B             
1 49125U 21080A   26198.78700543 -.00000323  00000+0  00000+0 0  9999
2 49125   0.0520 245.4964 0002708 245.8201 188.9949  1.00279615 17954
SHIJIAN-21 (SJ-21)      
1 49330U 21094A   26199.32364846 -.00000357  00000+0  00000+0 0  9992
2 49330   5.1850  60.9904 0051543 168.9422 310.6676  1.00276700  5678
SES-17                  
1 49332U 21095A   26199.25264766 -.00000280  00000+0  00000+0 0  9992
2 49332   0.0233  50.4660 0000903  63.5755 205.8645  1.00269923 18163
SYRACUSE 4A             
1 49333U 21095B   26198.98980461  .00000000  00000+0  00000+0 0  9998
2 49333   0.0194  65.4199 0001658  48.4658 223.7650  1.00270419 18252
QZS-1R (MICHIBIKI-1R)   
1 49336U 21096A   26198.56919843 -.00000311  00000+0  00000+0 0  9998
2 49336  37.5223  79.1315 0755353 272.2799 280.3110  1.00244494 17316
ZHONGXING-1D            
1 49505U 21114A   26199.29164786 -.00000345  00000+0  00000+0 0  9993
2 49505   0.0288 249.5754 0000637   3.2138 278.4252  1.00267045 17139
STPSAT-6                
1 49817U 21118A   26199.17251976 -.00000053  00000+0  00000+0 0  9994
2 49817   0.3990  85.0979 0000900 247.1375 274.0473  1.00270468 16886
EXPRESS AMU-7           
1 50001U 21123A   26199.29450787 -.00000250  00000+0  00000+0 0  9990
2 50001   0.0390 246.7036 0000482  62.6384 237.7773  1.00272693 16857
EXPRESS AMU-3           
1 50002U 21123B   26197.89551023  .00000000  00000+0  00000+0 0  9992
2 50002   0.0145 344.9181 0000346 324.0235  51.0553  1.00271212  7339
TIANLIAN 2-02           
1 50005U 21124A   26199.22844164 -.00000023  00000+0  00000+0 0  9992
2 50005   0.8802  85.6278 0001632 161.1882 302.4079  1.00271222 16936
TURKSAT 5B              
1 50212U 21126A   26198.98902459  .00000137  00000+0  00000+0 0  9993
2 50212   0.0702 339.9085 0002339  17.5014 336.4253  1.00273048 16607
INMARSAT 6-F1           
1 50319U 21128A   26198.98799797  .00000000  00000+0  00000+0 0  9991
2 50319   0.0170  52.3223 0000153  46.2494 276.6649  1.00269331 16566
SHIYAN-12 01 (SY-12 01) 
1 50321U 21129A   26198.77302700  .00000137  00000+0  00000+0 0  9997
2 50321   3.7517  79.4981 0002605 288.1588 241.4506  1.00052688 16804
SHIYAN-12 02 (SY-12 02) 
1 50322U 21129B   26198.77540042 -.00000372  00000+0  00000+0 0  9993
2 50322   3.7507  79.4976 0003144  68.7419 178.7607  1.00476084 16806
TJS-9                   
1 50574U 21135A   26199.29312119 -.00000307  00000+0  00000+0 0  9997
2 50574   0.0538 100.3641 0002130 331.2598 107.2448  1.00271262 16746
GOES 18                 
1 51850U 22021A   26198.95354755  .00000088  00000+0  00000+0 0  9999
2 51850   0.0156 130.5732 0000429  38.1260 333.3332  1.00272139  6909
ZHONGXING-6D            
1 52255U 22038A   26197.83400887 -.00000364  00000+0  00000+0 0  9999
2 52255   0.0170 218.2431 0000739 323.3346 178.4012  1.00271153 15721
NILESAT 301             
1 52817U 22061A   26199.26452106 -.00000066  00000+0  00000+0 0  9998
2 52817   0.0460   8.3180 0003579  73.8480 302.1283  1.00270064 15048
CMS-02 (GSAT-24)        
1 52903U 22067A   26198.98784926 -.00000173  00000+0  00000+0 0  9995
2 52903   0.0589 251.9126 0001007 112.2148  10.2727  1.00272862 14918
MEASAT 3D               
1 52904U 22067B   26199.10878075 -.00000250  00000+0  00000+0 0  9996
2 52904   0.0381 321.9245 0000534  66.7802  37.8731  1.00270725 14953
SES-22                  
1 52933U 22071A   26199.22683583  .00000096  00000+0  00000+0 0  9991
2 52933   0.0183  43.4758 0000928  65.7082 129.4903  1.00273070  7830
WFOV (USA 332)          
1 52940U 22073A   26199.00436468 -.00000372  00000+0  00000+0 0  9993
2 52940   3.7881  78.1367 0001001 188.7611 149.7434  1.00276256 14674
TIANLIAN 2-03           
1 53100U 22078A   26199.26798774  .00000064  00000+0  00000+0 0  9993
2 53100   0.7478  77.5361 0000805  17.1620 308.4815  1.00270016 14850
SBIRS GEO-6 (USA 336)   
1 53355U 22092A   26199.29346786 -.00000298  00000+0  00000+0 0  9996
2 53355   3.2060 318.0104 0001790 153.0648  69.6664  1.00270968 14549
EUTELSAT KONNECT VHTS   
1 53765U 22110A   26199.09628100  .00000009  00000+0  00000+0 0  9992
2 53765   0.0581  99.2340 0002836 358.3461 235.6751  1.00272523  7141
ZHONGXING-1E            
1 53813U 22112A   26198.99691131  .00000000  00000+0  00000+0 0  9991
2 53813   0.0173 230.6190 0000693  39.8220 105.6752  1.00270488 14153
SES-20                  
1 53960U 22123A   26199.23439345 -.00000109  00000+0  00000+0 0  9992
2 53960   0.0153  69.6244 0001944  23.5219 184.1662  1.00269224 13845
SES-21                  
1 53961U 22123B   26199.02683615  .00000000  00000+0  00000+0 0  9990
2 53961   0.0393  41.1389 0000980  73.9584  59.4811  1.00268201  7522
GALAXY 33 (G-33)        
1 54026U 22128A   26199.23695036  .00000071  00000+0  00000+0 0  9999
2 54026   0.0173  63.8723 0001869  50.0335 134.4194  1.00270038 14056
GALAXY 34 (G-34)        
1 54027U 22128B   26199.23646878  .00000051  00000+0  00000+0 0  9998
2 54027   0.0109  72.7228 0001574  50.4297 129.0028  1.00267752 14223
ANGOSAT 2               
1 54033U 22131A   26198.84276422  .00000126  00000+0  00000+0 0  9992
2 54033   0.0184 121.8347 0000104 287.8592 212.3430  1.00272706 13781
